{
    "links": {
        "self": "http://www.neowsapp.com/rest/v1/neo/3830495?api_key=iIulBulltgU6a56xZRHN4H3l9WmuAYTsLGpBGhQ2"
    },
    "id": "3830495",
    "neo_reference_id": "3830495",
    "name": "(2018 SB)",
    "designation": "2018 SB",
    "nasa_jpl_url": "http://ssd.jpl.nasa.gov/sbdb.cgi?sstr=3830495",
    "absolute_magnitude_h": 23.7,
    "estimated_diameter": {
        "kilometers": {
            "estimated_diameter_min": 0.0483676488,
            "estimated_diameter_max": 0.1081533507
        },
        "meters": {
            "estimated_diameter_min": 48.3676488219,
            "estimated_diameter_max": 108.1533506775
        },
        "miles": {
            "estimated_diameter_min": 0.0300542543,
            "estimated_diameter_max": 0.0672033557
        },
        "feet": {
            "estimated_diameter_min": 158.6865169607,
            "estimated_diameter_max": 354.8338390368
        }
    },
    "is_potentially_hazardous_asteroid": false,
    "close_approach_data": [
        {
            "close_approach_date": "2018-09-16",
            "close_approach_date_full": "2018-Sep-16 18:36",
            "epoch_date_close_approach": 1537122960000,
            "relative_velocity": {
                "kilometers_per_second": "23.4686435731",
                "kilometers_per_hour": "84487.1168632374",
                "miles_per_hour": "52497.0088087155"
            },
            "miss_distance": {
                "astronomical": "0.0554027586",
                "lunar": "21.5516730954",
                "kilometers": "8288134.678684182",
                "miles": "5150008.0802864316"
            },
            "orbiting_body": "Earth"
        }
    ],
    "orbital_data": {
        "orbit_id": "4",
        "orbit_determination_date": "2018-09-22 07:58:59",
        "first_observation_date": "2018-09-16",
        "last_observation_date": "2018-09-21",
        "data_arc_in_days": 5,
        "observations_used": 45,
        "orbit_uncertainty": "9",
        "minimum_orbit_intersection": ".0494817",
        "jupiter_tisserand_invariant": "4.240",
        "epoch_osculation": "2458379.5",
        "eccentricity": ".3155911053500154",
        "semi_major_axis": "1.486159260188545",
        "inclination": "43.22938051574364",
        "ascending_node_longitude": "355.1243543026326",
        "orbital_period": "661.7538165771899",
        "perihelion_distance": "1.017140616539481",
        "perihelion_argument": "328.0713206638518",
        "aphelion_distance": "1.955177903837609",
        "perihelion_time": "2458348.795097778263",
        "mean_anomaly": "16.70374166785929",
        "mean_motion": ".5440089516401119",
        "equinox": "J2000",
        "orbit_class": {
            "orbit_class_type": "AMO",
            "orbit_class_description": "Near-Earth asteroid orbits similar to that of 1221 Amor",
            "orbit_class_range": "1.017 AU < q (perihelion) < 1.3 AU"
        }
    },
    "is_sentry_object": false
}